{
  "norad_id": 58019,
  "name": "ANSER FOLLOWER 1",
  "history": [
    {
      "epoch": "2026-03-26T18:19:39.805824Z",
      "apogee_km": 448.33652291815815,
      "perigee_km": 446.9253636535641,
      "latitude_deg": -4.287924020597205e-05,
      "longitude_deg": 73.3014113936161,
      "height_km": 451.09889973936845,
      "semi_major_axis_km": 6825.767943285861,
      "eccentricity": 0.00010337,
      "inclination_deg": 97.5585,
      "raan_deg": 172.4254,
      "arg_perigee_deg": 120.3939,
      "mean_anomaly_deg": 239.7408,
      "mean_motion_rev_day": 15.39485075
    },
    {
      "epoch": "2026-03-31T16:50:55.353120Z",
      "apogee_km": 445.02702396504446,
      "perigee_km": 444.7118010687864,
      "latitude_deg": -2.4053618404785975e-05,
      "longitude_deg": 95.71984502875148,
      "height_km": 447.89154479227165,
      "semi_major_axis_km": 6823.006412516916,
      "eccentricity": 2.31e-05,
      "inclination_deg": 97.5581,
      "raan_deg": 177.5261,
      "arg_perigee_deg": 54.6873,
      "mean_anomaly_deg": 305.4394,
      "mean_motion_rev_day": 15.40419802
    },
    {
      "epoch": "2026-04-01T19:21:05.876928Z",
      "apogee_km": 444.76340575135237,
      "perigee_km": 444.56963813132825,
      "latitude_deg": -4.060950088267659e-05,
      "longitude_deg": 58.228463042497445,
      "height_km": 447.80546051367924,
      "semi_major_axis_km": 6822.80352194134,
      "eccentricity": 1.42e-05,
      "inclination_deg": 97.558,
      "raan_deg": 178.667,
      "arg_perigee_deg": 105.2598,
      "mean_anomaly_deg": 254.8663,
      "mean_motion_rev_day": 15.40488514
    },
    {
      "epoch": "2026-04-02T20:17:38.926752Z",
      "apogee_km": 444.44994935896193,
      "perigee_km": 444.30940551540607,
      "latitude_deg": -2.4819763990737465e-05,
      "longitude_deg": 44.140501543650686,
      "height_km": 447.52558152616064,
      "semi_major_axis_km": 6822.516677437184,
      "eccentricity": 1.03e-05,
      "inclination_deg": 97.5579,
      "raan_deg": 179.7411,
      "arg_perigee_deg": 117.3305,
      "mean_anomaly_deg": 242.7951,
      "mean_motion_rev_day": 15.40585667
    },
    {
      "epoch": "2026-04-02T21:51:10.762272Z",
      "apogee_km": 444.41151481122324,
      "perigee_km": 444.2625119787699,
      "latitude_deg": 4.0223350508303535e-06,
      "longitude_deg": 20.761030368059647,
      "height_km": 447.48403377238014,
      "semi_major_axis_km": 6822.474013394996,
      "eccentricity": 1.092e-05,
      "inclination_deg": 97.5578,
      "raan_deg": 179.8083,
      "arg_perigee_deg": 116.6097,
      "mean_anomaly_deg": 243.516,
      "mean_motion_rev_day": 15.40600118
    },
    {
      "epoch": "2026-04-03T19:40:34.440384Z",
      "apogee_km": 444.23241306776345,
      "perigee_km": 443.97453237789523,
      "latitude_deg": -1.062402568445542e-05,
      "longitude_deg": 53.45602472041343,
      "height_km": 447.3273482226679,
      "semi_major_axis_km": 6822.2404727228295,
      "eccentricity": 1.89e-05,
      "inclination_deg": 97.5578,
      "raan_deg": 180.7482,
      "arg_perigee_deg": 148.6369,
      "mean_anomaly_deg": 211.4888,
      "mean_motion_rev_day": 15.40679226
    },
    {
      "epoch": "2026-04-04T20:36:56.348928Z",
      "apogee_km": 443.99053904970697,
      "perigee_km": 443.6876433112575,
      "latitude_deg": 4.655551614458551e-05,
      "longitude_deg": 39.414905200744826,
      "height_km": 447.0954799072265,
      "semi_major_axis_km": 6821.9760911804815,
      "eccentricity": 2.22e-05,
      "inclination_deg": 97.5573,
      "raan_deg": 181.8226,
      "arg_perigee_deg": 160.1438,
      "mean_anomaly_deg": 199.9817,
      "mean_motion_rev_day": 15.40768789
    },
    {
      "epoch": "2026-04-05T12:12:07.939872Z",
      "apogee_km": 443.9105711739094,
      "perigee_km": 443.53100300663573,
      "latitude_deg": 3.869353958909421e-05,
      "longitude_deg": 165.64789260562625,
      "height_km": 447.0135709204447,
      "semi_major_axis_km": 6821.857787090273,
      "eccentricity": 2.782e-05,
      "inclination_deg": 97.5572,
      "raan_deg": 182.494,
      "arg_perigee_deg": 160.4109,
      "mean_anomaly_deg": 199.7148,
      "mean_motion_rev_day": 15.40808869
    },
    {
      "epoch": "2026-04-05T18:26:12.172416Z",
      "apogee_km": 443.8690373788968,
      "perigee_km": 443.47746547046427,
      "latitude_deg": 4.226143174029623e-05,
      "longitude_deg": 72.14281388149577,
      "height_km": 446.97251546110067,
      "semi_major_axis_km": 6821.81025142468,
      "eccentricity": 2.87e-05,
      "inclination_deg": 97.5571,
      "raan_deg": 182.7626,
      "arg_perigee_deg": 161.1211,
      "mean_anomaly_deg": 199.0046,
      "mean_motion_rev_day": 15.40824974
    },
    {
      "epoch": "2026-04-06T06:54:19.965312Z",
      "apogee_km": 443.79618675194524,
      "perigee_km": 443.36628206881323,
      "latitude_deg": 5.6858668935432935e-05,
      "longitude_deg": -114.86443628134435,
      "height_km": 446.90273541759706,
      "semi_major_axis_km": 6821.718234410379,
      "eccentricity": 3.151e-05,
      "inclination_deg": 97.5569,
      "raan_deg": 183.2999,
      "arg_perigee_deg": 164.7916,
      "mean_anomaly_deg": 195.334,
      "mean_motion_rev_day": 15.4085615
    },
    {
      "epoch": "2026-04-07T14:04:35.569056Z",
      "apogee_km": 443.6468180322081,
      "perigee_km": 443.08499905266035,
      "latitude_deg": -3.828589641915691e-05,
      "longitude_deg": 137.6334096587938,
      "height_km": 446.76076959369436,
      "semi_major_axis_km": 6821.502908542434,
      "eccentricity": 4.118e-05,
      "inclination_deg": 97.5566,
      "raan_deg": 184.6429,
      "arg_perigee_deg": 177.1252,
      "mean_anomaly_deg": 182.9996,
      "mean_motion_rev_day": 15.40929108
    },
    {
      "epoch": "2026-04-07T20:18:38.087424Z",
      "apogee_km": 443.62071166696296,
      "perigee_km": 443.0354299638875,
      "latitude_deg": -3.0134548220404294e-05,
      "longitude_deg": 44.13569198882233,
      "height_km": 446.7333078080093,
      "semi_major_axis_km": 6821.465070815425,
      "eccentricity": 4.29e-05,
      "inclination_deg": 97.5566,
      "raan_deg": 184.9117,
      "arg_perigee_deg": 173.8398,
      "mean_anomaly_deg": 186.2853,
      "mean_motion_rev_day": 15.40941929
    },
    {
      "epoch": "2026-04-08T15:00:44.542656Z",
      "apogee_km": 443.60127837320306,
      "perigee_km": 442.86620746194603,
      "latitude_deg": 1.947036427657745e-05,
      "longitude_deg": 123.64643091079114,
      "height_km": 446.715288528881,
      "semi_major_axis_km": 6821.370742917574,
      "eccentricity": 5.388e-05,
      "inclination_deg": 97.5566,
      "raan_deg": 185.7174,
      "arg_perigee_deg": 177.4555,
      "mean_anomaly_deg": 182.6694,
      "mean_motion_rev_day": 15.40973892
    },
    {
      "epoch": "2026-04-09T20:37:17.416704Z",
      "apogee_km": 443.114742545451,
      "perigee_km": 442.50494989739946,
      "latitude_deg": -1.0104876597511572e-06,
      "longitude_deg": 39.56915092771129,
      "height_km": 446.2291050639928,
      "semi_major_axis_km": 6820.946846221425,
      "eccentricity": 4.47e-05,
      "inclination_deg": 97.5565,
      "raan_deg": 186.9931,
      "arg_perigee_deg": 177.8912,
      "mean_anomaly_deg": 182.2336,
      "mean_motion_rev_day": 15.41117543
    },
    {
      "epoch": "2026-04-10T04:24:47.042784Z",
      "apogee_km": 443.08337224812294,
      "perigee_km": 442.41738080467894,
      "latitude_deg": 5.1239190291797655e-05,
      "longitude_deg": -77.28778692698836,
      "height_km": 446.19787056904016,
      "semi_major_axis_km": 6820.887376526401,
      "eccentricity": 4.882e-05,
      "inclination_deg": 97.5564,
      "raan_deg": 187.3296,
      "arg_perigee_deg": 181.6977,
      "mean_anomaly_deg": 178.4268,
      "mean_motion_rev_day": 15.41137698
    },
    {
      "epoch": "2026-04-11T19:22:03.891936Z",
      "apogee_km": 442.52512692656455,
      "perigee_km": 441.8089950001631,
      "latitude_deg": -2.510222571774586e-05,
      "longitude_deg": 58.47140326707998,
      "height_km": 445.61777436701414,
      "semi_major_axis_km": 6820.304060963364,
      "eccentricity": 5.25e-05,
      "inclination_deg": 97.5565,
      "raan_deg": 189.0088,
      "arg_perigee_deg": 200.4284,
      "mean_anomaly_deg": 159.6941,
      "mean_motion_rev_day": 15.41335414
    },
    {
      "epoch": "2026-04-13T05:38:40.841952Z",
      "apogee_km": 442.2592680850403,
      "perigee_km": 441.40554431477267,
      "latitude_deg": -8.248422194979449e-05,
      "longitude_deg": -95.61245175202654,
      "height_km": 445.33955226308296,
      "semi_major_axis_km": 6819.969406199906,
      "eccentricity": 6.259e-05,
      "inclination_deg": 97.5568,
      "raan_deg": 190.4866,
      "arg_perigee_deg": 203.4115,
      "mean_anomaly_deg": 156.7102,
      "mean_motion_rev_day": 15.41448865
    },
    {
      "epoch": "2026-04-14T20:35:34.332864Z",
      "apogee_km": 442.02876016969367,
      "perigee_km": 441.0139950031098,
      "latitude_deg": 3.691228858284568e-05,
      "longitude_deg": 40.24461003677047,
      "height_km": 445.1205487872947,
      "semi_major_axis_km": 6819.658377586402,
      "eccentricity": 7.44e-05,
      "inclination_deg": 97.5571,
      "raan_deg": 192.1661,
      "arg_perigee_deg": 197.5967,
      "mean_anomaly_deg": 162.5254,
      "mean_motion_rev_day": 15.41554319
    },
    {
      "epoch": "2026-04-15T19:57:38.511072Z",
      "apogee_km": 441.9319405333672,
      "perigee_km": 440.7917203289189,
      "latitude_deg": 3.620836873440704e-05,
      "longitude_deg": 49.77542024335331,
      "height_km": 445.0230258151438,
      "semi_major_axis_km": 6819.498830431143,
      "eccentricity": 8.36e-05,
      "inclination_deg": 97.5572,
      "raan_deg": 193.174,
      "arg_perigee_deg": 196.877,
      "mean_anomaly_deg": 163.2449,
      "mean_motion_rev_day": 15.41608418
    },
    {
      "epoch": "2026-04-16T19:19:39.275616Z",
      "apogee_km": 441.75174762710776,
      "perigee_km": 440.5951925713798,
      "latitude_deg": 6.777729389101263e-05,
      "longitude_deg": 59.320188715338965,
      "height_km": 444.830638848115,
      "semi_major_axis_km": 6819.3104700992435,
      "eccentricity": 8.48e-05,
      "inclination_deg": 97.5571,
      "raan_deg": 194.1816,
      "arg_perigee_deg": 200.5824,
      "mean_anomaly_deg": 159.5389,
      "mean_motion_rev_day": 15.41672291
    },
    {
      "epoch": "2026-04-17T21:48:32.154336Z",
      "apogee_km": 441.58695510146026,
      "perigee_km": 440.32269547705255,
      "latitude_deg": -2.836665759745961e-06,
      "longitude_deg": 22.15462083759154,
      "height_km": 444.6665363789269,
      "semi_major_axis_km": 6819.091825289256,
      "eccentricity": 9.27e-05,
      "inclination_deg": 97.5571,
      "raan_deg": 195.3239,
      "arg_perigee_deg": 199.5279,
      "mean_anomaly_deg": 160.5932,
      "mean_motion_rev_day": 15.41746439
    }
  ]
}